TERRASAR-X              
1 31698U 07026A   26090.46715279  .00001472  00000+0  73283-4 0  9990
2 31698  97.4461  99.2820 0001876  85.5576 274.5873 15.19148613 41424
WORLDVIEW-1 (WV-1)      
1 32060U 07041A   26091.35494197  .00007933  00000+0  33047-3 0  9994
2 32060  97.3844 212.1885 0001762 357.7590   2.3639 15.23988914 31172
YAOGAN-3                
1 32289U 07055A   26091.53544450  .00004024  00000+0  41797-3 0  9999
2 32289  97.8234 122.1587 0001285  79.1163 281.0200 14.90482327994441
COSMO-SKYMED 2          
1 32376U 07059A   26091.53659514  .00000634  00000+0  86165-4 0  9990
2 32376  97.8881 276.2430 0001304  87.5491 272.5871 14.82154250990642
RADARSAT-2              
1 32382U 07061A   26091.48967093  .00000425  00000+0  18193-3 0  9991
2 32382  98.5808  99.5098 0001242  84.1185 276.0139 14.29981601954999
CARTOSAT-2A             
1 32783U 08021A   26091.47125156  .00000559  00000+0  82067-4 0  9998
2 32783  97.7731 142.7704 0012005   8.3276 351.8133 14.79141097967467
HUANJING 1A (HJ-1A)     
1 33320U 08041A   26091.49666032  .00001870  00000+0  23111-3 0  9994
2 33320  97.6648  80.3264 0020041  34.1607 326.0893 14.83798717947033
HUANJING 1B (HJ-1B)     
1 33321U 08041B   26091.49963179  .00001395  00000+0  17510-3 0  9995
2 33321  97.6494  83.7276 0038029  75.4673 285.0755 14.83165143947042
GEOEYE 1                
1 33331U 08042A   26091.50282457  .00000626  00000+0  12670-3 0  9990
2 33331  98.1272 166.3970 0003074 315.2378  44.8577 14.64650517938924
THEOS                   
1 33396U 08049A   26091.52400661 -.00000086  00000+0 -20584-4 0  9995
2 33396  98.5658 151.2703 0001154  96.8268 263.3041 14.20120821907080
COSMO-SKYMED 3          
1 33412U 08054A   26091.50425451  .00003916  00000+0  26922-3 0  9996
2 33412  97.8384 308.7864 0016250 161.3211 198.8615 15.06441883945397
YAOGAN-4                
1 33446U 08061A   26091.52531751  .00001589  00000+0  20170-3 0  9997
2 33446  97.9268  25.6289 0013514 325.7495  34.2846 14.83045927934303
GOSAT (IBUKI)           
1 33492U 09002A   26091.29717176  .00000867  00000+0  16129-3 0  9992
2 33492  98.0787 203.3805 0001034  93.3734 266.7589 14.67543277920189
DEIMOS-1                
1 35681U 09041A   26091.47189527  .00001049  00000+0  16252-3 0  9990
2 35681  97.7295 252.0653 0002730  82.7237 277.4283 14.75151983895579
DUBAISAT-1              
1 35682U 09041B   26091.36741612  .00001352  00000+0  20861-3 0  9996
2 35682  97.9918 225.5261 0009528 323.2484  36.8071 14.74969175893774
OCEANSAT-2              
1 35931U 09051A   26091.49486419  .00000129  00000+0  11354-3 0  9997
2 35931  98.2316  86.0176 0017593  89.9819 270.3364 13.99654188868606
WORLDVIEW-2 (WV-2)      
1 35946U 09055A   26091.48123314  .00000182  00000+0  74593-4 0  9992
2 35946  98.4657 166.0177 0005580  90.9190 269.2637 14.37920036864628
