[{"OBJECT_NAME":"TERRASAR-X","OBJECT_ID":"2007-026A","EPOCH":"2026-03-31T11:12:42.001056","MEAN_MOTION":15.19148613,"ECCENTRICITY":0.0001876,"INCLINATION":97.4461,"RA_OF_ASC_NODE":99.282,"ARG_OF_PERICENTER":85.5576,"MEAN_ANOMALY":274.5873,"EPHEMERIS_TYPE":0,"CLASSIFICATION_TYPE":"U","NORAD_CAT_ID":31698,"ELEMENT_SET_NO":999,"REV_AT_EPOCH":4142,"BSTAR":7.3283e-5,"MEAN_MOTION_DOT":1.472e-5,"MEAN_MOTION_DDOT":0},{"OBJECT_NAME":"WORLDVIEW-1 (WV-1)","OBJECT_ID":"2007-041A","EPOCH":"2026-04-01T08:31:06.986208","MEAN_MOTION":15.23988914,"ECCENTRICITY":0.0001762,"INCLINATION":97.3844,"RA_OF_ASC_NODE":212.1885,"ARG_OF_PERICENTER":357.759,"MEAN_ANOMALY":2.3639,"EPHEMERIS_TYPE":0,"CLASSIFICATION_TYPE":"U","NORAD_CAT_ID":32060,"ELEMENT_SET_NO":999,"REV_AT_EPOCH":3117,"BSTAR":0.00033047,"MEAN_MOTION_DOT":7.933e-5,"MEAN_MOTION_DDOT":0},{"OBJECT_NAME":"YAOGAN-3","OBJECT_ID":"2007-055A","EPOCH":"2026-04-01T12:51:02.404800","MEAN_MOTION":14.90482327,"ECCENTRICITY":0.0001285,"INCLINATION":97.8234,"RA_OF_ASC_NODE":122.1587,"ARG_OF_PERICENTER":79.1163,"MEAN_ANOMALY":281.02,"EPHEMERIS_TYPE":0,"CLASSIFICATION_TYPE":"U","NORAD_CAT_ID":32289,"ELEMENT_SET_NO":999,"REV_AT_EPOCH":99444,"BSTAR":0.00041797,"MEAN_MOTION_DOT":4.024e-5,"MEAN_MOTION_DDOT":0},{"OBJECT_NAME":"COSMO-SKYMED 2","OBJECT_ID":"2007-059A","EPOCH":"2026-04-01T12:52:41.820096","MEAN_MOTION":14.8215425,"ECCENTRICITY":0.0001304,"INCLINATION":97.8881,"RA_OF_ASC_NODE":276.243,"ARG_OF_PERICENTER":87.5491,"MEAN_ANOMALY":272.5871,"EPHEMERIS_TYPE":0,"CLASSIFICATION_TYPE":"U","NORAD_CAT_ID":32376,"ELEMENT_SET_NO":999,"REV_AT_EPOCH":99064,"BSTAR":8.6165e-5,"MEAN_MOTION_DOT":6.34e-6,"MEAN_MOTION_DDOT":0},{"OBJECT_NAME":"RADARSAT-2","OBJECT_ID":"2007-061A","EPOCH":"2026-04-01T11:45:07.568352","MEAN_MOTION":14.29981601,"ECCENTRICITY":0.0001242,"INCLINATION":98.5808,"RA_OF_ASC_NODE":99.5098,"ARG_OF_PERICENTER":84.1185,"MEAN_ANOMALY":276.0139,"EPHEMERIS_TYPE":0,"CLASSIFICATION_TYPE":"U","NORAD_CAT_ID":32382,"ELEMENT_SET_NO":999,"REV_AT_EPOCH":95499,"BSTAR":0.00018193,"MEAN_MOTION_DOT":4.25e-6,"MEAN_MOTION_DDOT":0},{"OBJECT_NAME":"CARTOSAT-2A","OBJECT_ID":"2008-021A","EPOCH":"2026-04-01T11:18:36.134784","MEAN_MOTION":14.79141097,"ECCENTRICITY":0.0012005,"INCLINATION":97.7731,"RA_OF_ASC_NODE":142.7704,"ARG_OF_PERICENTER":8.3276,"MEAN_ANOMALY":351.8133,"EPHEMERIS_TYPE":0,"CLASSIFICATION_TYPE":"U","NORAD_CAT_ID":32783,"ELEMENT_SET_NO":999,"REV_AT_EPOCH":96746,"BSTAR":8.2067e-5,"MEAN_MOTION_DOT":5.59e-6,"MEAN_MOTION_DDOT":0},{"OBJECT_NAME":"HUANJING 1A (HJ-1A)","OBJECT_ID":"2008-041A","EPOCH":"2026-04-01T11:55:11.451648","MEAN_MOTION":14.83798717,"ECCENTRICITY":0.0020041,"INCLINATION":97.6648,"RA_OF_ASC_NODE":80.3264,"ARG_OF_PERICENTER":34.1607,"MEAN_ANOMALY":326.0893,"EPHEMERIS_TYPE":0,"CLASSIFICATION_TYPE":"U","NORAD_CAT_ID":33320,"ELEMENT_SET_NO":999,"REV_AT_EPOCH":94703,"BSTAR":0.00023111,"MEAN_MOTION_DOT":1.87e-5,"MEAN_MOTION_DDOT":0},{"OBJECT_NAME":"HUANJING 1B (HJ-1B)","OBJECT_ID":"2008-041B","EPOCH":"2026-04-01T11:59:28.186656","MEAN_MOTION":14.83165143,"ECCENTRICITY":0.0038029,"INCLINATION":97.6494,"RA_OF_ASC_NODE":83.7276,"ARG_OF_PERICENTER":75.4673,"MEAN_ANOMALY":285.0755,"EPHEMERIS_TYPE":0,"CLASSIFICATION_TYPE":"U","NORAD_CAT_ID":33321,"ELEMENT_SET_NO":999,"REV_AT_EPOCH":94704,"BSTAR":0.0001751,"MEAN_MOTION_DOT":1.395e-5,"MEAN_MOTION_DDOT":0},{"OBJECT_NAME":"GEOEYE 1","OBJECT_ID":"2008-042A","EPOCH":"2026-04-01T12:04:04.042848","MEAN_MOTION":14.64650517,"ECCENTRICITY":0.0003074,"INCLINATION":98.1272,"RA_OF_ASC_NODE":166.397,"ARG_OF_PERICENTER":315.2378,"MEAN_ANOMALY":44.8577,"EPHEMERIS_TYPE":0,"CLASSIFICATION_TYPE":"U","NORAD_CAT_ID":33331,"ELEMENT_SET_NO":999,"REV_AT_EPOCH":93892,"BSTAR":0.0001267,"MEAN_MOTION_DOT":6.26e-6,"MEAN_MOTION_DDOT":0},{"OBJECT_NAME":"THEOS","OBJECT_ID":"2008-049A","EPOCH":"2026-04-01T12:34:34.171104","MEAN_MOTION":14.20120821,"ECCENTRICITY":0.0001154,"INCLINATION":98.5658,"RA_OF_ASC_NODE":151.2703,"ARG_OF_PERICENTER":96.8268,"MEAN_ANOMALY":263.3041,"EPHEMERIS_TYPE":0,"CLASSIFICATION_TYPE":"U","NORAD_CAT_ID":33396,"ELEMENT_SET_NO":999,"REV_AT_EPOCH":90708,"BSTAR":-2.0584e-5,"MEAN_MOTION_DOT":-8.6e-7,"MEAN_MOTION_DDOT":0},{"OBJECT_NAME":"COSMO-SKYMED 3","OBJECT_ID":"2008-054A","EPOCH":"2026-04-01T12:06:07.589664","MEAN_MOTION":15.06441883,"ECCENTRICITY":0.001625,"INCLINATION":97.8384,"RA_OF_ASC_NODE":308.7864,"ARG_OF_PERICENTER":161.3211,"MEAN_ANOMALY":198.8615,"EPHEMERIS_TYPE":0,"CLASSIFICATION_TYPE":"U","NORAD_CAT_ID":33412,"ELEMENT_SET_NO":999,"REV_AT_EPOCH":94539,"BSTAR":0.00026922,"MEAN_MOTION_DOT":3.916e-5,"MEAN_MOTION_DDOT":0},{"OBJECT_NAME":"YAOGAN-4","OBJECT_ID":"2008-061A","EPOCH":"2026-04-01T12:36:27.432864","MEAN_MOTION":14.83045927,"ECCENTRICITY":0.0013514,"INCLINATION":97.9268,"RA_OF_ASC_NODE":25.6289,"ARG_OF_PERICENTER":325.7495,"MEAN_ANOMALY":34.2846,"EPHEMERIS_TYPE":0,"CLASSIFICATION_TYPE":"U","NORAD_CAT_ID":33446,"ELEMENT_SET_NO":999,"REV_AT_EPOCH":93430,"BSTAR":0.0002017,"MEAN_MOTION_DOT":1.589e-5,"MEAN_MOTION_DDOT":0},{"OBJECT_NAME":"GOSAT (IBUKI)","OBJECT_ID":"2009-002A","EPOCH":"2026-04-01T07:07:55.640064","MEAN_MOTION":14.67543277,"ECCENTRICITY":0.0001034,"INCLINATION":98.0787,"RA_OF_ASC_NODE":203.3805,"ARG_OF_PERICENTER":93.3734,"MEAN_ANOMALY":266.7589,"EPHEMERIS_TYPE":0,"CLASSIFICATION_TYPE":"U","NORAD_CAT_ID":33492,"ELEMENT_SET_NO":999,"REV_AT_EPOCH":92018,"BSTAR":0.00016129,"MEAN_MOTION_DOT":8.67e-6,"MEAN_MOTION_DDOT":0},{"OBJECT_NAME":"DEIMOS-1","OBJECT_ID":"2009-041A","EPOCH":"2026-04-01T11:19:31.751328","MEAN_MOTION":14.75151983,"ECCENTRICITY":0.000273,"INCLINATION":97.7295,"RA_OF_ASC_NODE":252.0653,"ARG_OF_PERICENTER":82.7237,"MEAN_ANOMALY":277.4283,"EPHEMERIS_TYPE":0,"CLASSIFICATION_TYPE":"U","NORAD_CAT_ID":35681,"ELEMENT_SET_NO":999,"REV_AT_EPOCH":89557,"BSTAR":0.00016252,"MEAN_MOTION_DOT":1.049e-5,"MEAN_MOTION_DDOT":0},{"OBJECT_NAME":"DUBAISAT-1","OBJECT_ID":"2009-041B","EPOCH":"2026-04-01T08:49:04.752768","MEAN_MOTION":14.74969175,"ECCENTRICITY":0.0009528,"INCLINATION":97.9918,"RA_OF_ASC_NODE":225.5261,"ARG_OF_PERICENTER":323.2484,"MEAN_ANOMALY":36.8071,"EPHEMERIS_TYPE":0,"CLASSIFICATION_TYPE":"U","NORAD_CAT_ID":35682,"ELEMENT_SET_NO":999,"REV_AT_EPOCH":89377,"BSTAR":0.00020861,"MEAN_MOTION_DOT":1.352e-5,"MEAN_MOTION_DDOT":0},{"OBJECT_NAME":"OCEANSAT-2","OBJECT_ID":"2009-051A","EPOCH":"2026-04-01T11:52:36.266016","MEAN_MOTION":13.99654188,"ECCENTRICITY":0.0017593,"INCLINATION":98.2316,"RA_OF_ASC_NODE":86.0176,"ARG_OF_PERICENTER":89.9819,"MEAN_ANOMALY":270.3364,"EPHEMERIS_TYPE":0,"CLASSIFICATION_TYPE":"U","NORAD_CAT_ID":35931,"ELEMENT_SET_NO":999,"REV_AT_EPOCH":86860,"BSTAR":0.00011354,"MEAN_MOTION_DOT":1.29e-6,"MEAN_MOTION_DDOT":0},{"OBJECT_NAME":"WORLDVIEW-2 (WV-2)","OBJECT_ID":"2009-055A","EPOCH":"2026-04-01T11:32:58.543296","MEAN_MOTION":14.37920036,"ECCENTRICITY":0.000558,"INCLINATION":98.4657,"RA_OF_ASC_NODE":166.0177,"ARG_OF_PERICENTER":90.919,"MEAN_ANOMALY":269.2637,"EPHEMERIS_TYPE":0,"CLASSIFICATION_TYPE":"U","NORAD_CAT_ID":35946,"ELEMENT_SET_NO":999,"REV_AT_EPOCH":86462,"BSTAR":7.4593e-5,"MEAN_MOTION_DOT":1.82e-6,"MEAN_MOTION_DDOT":0}]
